CCSDS_OMM_VERS = 2.0
CREATION_DATE  = 
ORIGINATOR     = 

OBJECT_NAME    = STARLINK-36545
OBJECT_ID      = 2026-012N
CENTER_NAME    = EARTH
REF_FRAME      = TEME
TIME_SYSTEM    = UTC
MEAN_ELEMENT_THEORY = SGP/SGP4

EPOCH          = 2026-02-16T14:00:01.999872
MEAN_MOTION    = 15.36604321
ECCENTRICITY   = .00014496
INCLINATION    = 43.0000
RA_OF_ASC_NODE = 73.3715
ARG_OF_PERICENTER = 289.3394
MEAN_ANOMALY   = 173.7230

EPHEMERIS_TYPE = 0
CLASSIFICATION_TYPE = U
NORAD_CAT_ID   = 67505
ELEMENT_SET_NO = 999
REV_AT_EPOCH   = 568
BSTAR          = -.55423736E-1
MEAN_MOTION_DOT = -.1820654E-1
MEAN_MOTION_DDOT = 0

CCSDS_OMM_VERS = 2.0
CREATION_DATE  = 
ORIGINATOR     = 

OBJECT_NAME    = STARLINK-36553
OBJECT_ID      = 2026-012P
CENTER_NAME    = EARTH
REF_FRAME      = TEME
TIME_SYSTEM    = UTC
MEAN_ELEMENT_THEORY = SGP/SGP4

EPOCH          = 2026-02-16T14:00:01.999872
MEAN_MOTION    = 15.35378718
ECCENTRICITY   = .00015278
INCLINATION    = 42.9994
RA_OF_ASC_NODE = 73.3074
ARG_OF_PERICENTER = 292.6233
MEAN_ANOMALY   = 195.9561

EPHEMERIS_TYPE = 0
CLASSIFICATION_TYPE = U
NORAD_CAT_ID   = 67506
ELEMENT_SET_NO = 999
REV_AT_EPOCH   = 568
BSTAR          = -.57528737E-1
MEAN_MOTION_DOT = -.1816613E-1
MEAN_MOTION_DDOT = 0

CCSDS_OMM_VERS = 2.0
CREATION_DATE  = 
ORIGINATOR     = 

OBJECT_NAME    = STARLINK-36521
OBJECT_ID      = 2026-012Q
CENTER_NAME    = EARTH
REF_FRAME      = TEME
TIME_SYSTEM    = UTC
MEAN_ELEMENT_THEORY = SGP/SGP4

EPOCH          = 2026-02-16T14:00:01.999872
MEAN_MOTION    = 15.35865830
ECCENTRICITY   = .00014303
INCLINATION    = 42.9991
RA_OF_ASC_NODE = 73.2815
ARG_OF_PERICENTER = 298.6613
MEAN_ANOMALY   = 200.4083

EPHEMERIS_TYPE = 0
CLASSIFICATION_TYPE = U
NORAD_CAT_ID   = 67507
ELEMENT_SET_NO = 999
REV_AT_EPOCH   = 568
BSTAR          = -.56448966E-1
MEAN_MOTION_DOT = -.1811374E-1
MEAN_MOTION_DDOT = 0

CCSDS_OMM_VERS = 2.0
CREATION_DATE  = 
ORIGINATOR     = 

OBJECT_NAME    = STARLINK-36526
OBJECT_ID      = 2026-012R
CENTER_NAME    = EARTH
REF_FRAME      = TEME
TIME_SYSTEM    = UTC
MEAN_ELEMENT_THEORY = SGP/SGP4

EPOCH          = 2026-02-16T14:00:01.999872
MEAN_MOTION    = 15.36633030
ECCENTRICITY   = .00014312
INCLINATION    = 42.9990
RA_OF_ASC_NODE = 73.2454
ARG_OF_PERICENTER = 295.4863
MEAN_ANOMALY   = 218.1723

EPHEMERIS_TYPE = 0
CLASSIFICATION_TYPE = U
NORAD_CAT_ID   = 67508
ELEMENT_SET_NO = 999
REV_AT_EPOCH   = 568
BSTAR          = -.55391488E-1
MEAN_MOTION_DOT = -.1821226E-1
MEAN_MOTION_DDOT = 0

CCSDS_OMM_VERS = 2.0
CREATION_DATE  = 
ORIGINATOR     = 

OBJECT_NAME    = STARLINK-36541
OBJECT_ID      = 2026-012S
CENTER_NAME    = EARTH
REF_FRAME      = TEME
TIME_SYSTEM    = UTC
MEAN_ELEMENT_THEORY = SGP/SGP4

EPOCH          = 2026-02-14T10:17:36.591936
MEAN_MOTION    = 15.50639519
ECCENTRICITY   = .00005439
INCLINATION    = 42.9986
RA_OF_ASC_NODE = 86.7186
ARG_OF_PERICENTER = 353.0224
MEAN_ANOMALY   = 7.0629

EPHEMERIS_TYPE = 0
CLASSIFICATION_TYPE = U
NORAD_CAT_ID   = 67509
ELEMENT_SET_NO = 999
REV_AT_EPOCH   = 419
BSTAR          = .12183877E-2
MEAN_MOTION_DOT = .7195E-3
MEAN_MOTION_DDOT = 0

CCSDS_OMM_VERS = 2.0
CREATION_DATE  = 
ORIGINATOR     = 

OBJECT_NAME    = STARLINK-36549
OBJECT_ID      = 2026-012T
CENTER_NAME    = EARTH
REF_FRAME      = TEME
TIME_SYSTEM    = UTC
MEAN_ELEMENT_THEORY = SGP/SGP4

EPOCH          = 2026-02-16T14:00:01.999872
MEAN_MOTION    = 15.34021259
ECCENTRICITY   = .0001627
INCLINATION    = 42.9993
RA_OF_ASC_NODE = 73.2021
ARG_OF_PERICENTER = 293.8735
MEAN_ANOMALY   = 233.8464

EPHEMERIS_TYPE = 0
CLASSIFICATION_TYPE = U
NORAD_CAT_ID   = 67510
ELEMENT_SET_NO = 999
REV_AT_EPOCH   = 562
BSTAR          = -.57278049E-1
MEAN_MOTION_DOT = -.1739584E-1
MEAN_MOTION_DDOT = 0

CCSDS_OMM_VERS = 2.0
CREATION_DATE  = 
ORIGINATOR     = 

OBJECT_NAME    = STARLINK-36540
OBJECT_ID      = 2026-012U
CENTER_NAME    = EARTH
REF_FRAME      = TEME
TIME_SYSTEM    = UTC
MEAN_ELEMENT_THEORY = SGP/SGP4

EPOCH          = 2026-02-14T11:47:58.668000
MEAN_MOTION    = 15.50592337
ECCENTRICITY   = .00033767
INCLINATION    = 43.0023
RA_OF_ASC_NODE = 86.3251
ARG_OF_PERICENTER = 283.9420
MEAN_ANOMALY   = 76.1065

EPHEMERIS_TYPE = 0
CLASSIFICATION_TYPE = U
NORAD_CAT_ID   = 67511
ELEMENT_SET_NO = 999
REV_AT_EPOCH   = 420
BSTAR          = .1608741E-2
MEAN_MOTION_DOT = .95249E-3
MEAN_MOTION_DDOT = 0

CCSDS_OMM_VERS = 2.0
CREATION_DATE  = 
ORIGINATOR     = 

OBJECT_NAME    = STARLINK-36538
OBJECT_ID      = 2026-012V
CENTER_NAME    = EARTH
REF_FRAME      = TEME
TIME_SYSTEM    = UTC
MEAN_ELEMENT_THEORY = SGP/SGP4

EPOCH          = 2026-02-16T14:00:01.999872
MEAN_MOTION    = 15.27509726
ECCENTRICITY   = .00021217
INCLINATION    = 43.0001
RA_OF_ASC_NODE = 73.8332
ARG_OF_PERICENTER = 292.7071
MEAN_ANOMALY   = 339.2724

EPHEMERIS_TYPE = 0
CLASSIFICATION_TYPE = U
NORAD_CAT_ID   = 67512
ELEMENT_SET_NO = 999
REV_AT_EPOCH   = 568
BSTAR          = .24469759E-2
MEAN_MOTION_DOT = .67548E-3
MEAN_MOTION_DDOT = 0

CCSDS_OMM_VERS = 2.0
CREATION_DATE  = 
ORIGINATOR     = 

OBJECT_NAME    = STARLINK-36531
OBJECT_ID      = 2026-012W
CENTER_NAME    = EARTH
REF_FRAME      = TEME
TIME_SYSTEM    = UTC
MEAN_ELEMENT_THEORY = SGP/SGP4

EPOCH          = 2026-02-16T14:00:01.999872
MEAN_MOTION    = 15.29832365
ECCENTRICITY   = .00004679
INCLINATION    = 42.9996
RA_OF_ASC_NODE = 73.6980
ARG_OF_PERICENTER = 282.3306
MEAN_ANOMALY   = 44.9679

EPHEMERIS_TYPE = 0
CLASSIFICATION_TYPE = U
NORAD_CAT_ID   = 67513
ELEMENT_SET_NO = 999
REV_AT_EPOCH   = 562
BSTAR          = -.11705447E+0
MEAN_MOTION_DOT = -.3026643E-1
MEAN_MOTION_DDOT = 0

CCSDS_OMM_VERS = 2.0
CREATION_DATE  = 
ORIGINATOR     = 

OBJECT_NAME    = STARLINK-36530
OBJECT_ID      = 2026-012X
CENTER_NAME    = EARTH
REF_FRAME      = TEME
TIME_SYSTEM    = UTC
MEAN_ELEMENT_THEORY = SGP/SGP4

EPOCH          = 2026-02-16T14:00:01.999872
MEAN_MOTION    = 15.30870604
ECCENTRICITY   = .00011185
INCLINATION    = 43.0007
RA_OF_ASC_NODE = 73.6989
ARG_OF_PERICENTER = 246.2930
MEAN_ANOMALY   = 81.1382

EPHEMERIS_TYPE = 0
CLASSIFICATION_TYPE = U
NORAD_CAT_ID   = 67514
ELEMENT_SET_NO = 999
REV_AT_EPOCH   = 562
BSTAR          = -.10188817E+0
MEAN_MOTION_DOT = -.2756473E-1
MEAN_MOTION_DDOT = 0

CCSDS_OMM_VERS = 2.0
CREATION_DATE  = 
ORIGINATOR     = 

OBJECT_NAME    = STARLINK-36543
OBJECT_ID      = 2026-012Y
CENTER_NAME    = EARTH
REF_FRAME      = TEME
TIME_SYSTEM    = UTC
MEAN_ELEMENT_THEORY = SGP/SGP4

EPOCH          = 2026-02-16T14:00:01.999872
MEAN_MOTION    = 15.31728892
ECCENTRICITY   = .00013947
INCLINATION    = 42.9995
RA_OF_ASC_NODE = 73.7048
ARG_OF_PERICENTER = 295.4526
MEAN_ANOMALY   = 30.2663

EPHEMERIS_TYPE = 0
CLASSIFICATION_TYPE = U
NORAD_CAT_ID   = 67515
ELEMENT_SET_NO = 999
REV_AT_EPOCH   = 562
BSTAR          = -.76556387E-1
MEAN_MOTION_DOT = -.2149939E-1
MEAN_MOTION_DDOT = 0

CCSDS_OMM_VERS = 2.0
CREATION_DATE  = 
ORIGINATOR     = 

OBJECT_NAME    = STARLINK-36537
OBJECT_ID      = 2026-012Z
CENTER_NAME    = EARTH
REF_FRAME      = TEME
TIME_SYSTEM    = UTC
MEAN_ELEMENT_THEORY = SGP/SGP4

EPOCH          = 2026-02-16T14:00:01.999872
MEAN_MOTION    = 15.31821368
ECCENTRICITY   = .00009966
INCLINATION    = 43.0008
RA_OF_ASC_NODE = 73.5309
ARG_OF_PERICENTER = 304.6224
MEAN_ANOMALY   = 90.6499

EPHEMERIS_TYPE = 0
CLASSIFICATION_TYPE = U
NORAD_CAT_ID   = 67516
ELEMENT_SET_NO = 999
REV_AT_EPOCH   = 562
BSTAR          = -.76364119E-1
MEAN_MOTION_DOT = -.215053E-1
MEAN_MOTION_DDOT = 0

