STARLINK-36545          
1 67505U 26012N   26047.58335648 -.01820654  00000+0 -55424-1 0  9993
2 67505  43.0000  73.3715 0001449 289.3394 173.7230 15.36604321  5687
STARLINK-36553          
1 67506U 26012P   26047.58335648 -.01816613  00000+0 -57529-1 0  9992
2 67506  42.9994  73.3074 0001527 292.6233 195.9561 15.35378718  5682
STARLINK-36521          
1 67507U 26012Q   26047.58335648 -.01811374  00000+0 -56449-1 0  9992
2 67507  42.9991  73.2815 0001430 298.6613 200.4083 15.35865830  5680
STARLINK-36526          
1 67508U 26012R   26047.58335648 -.01821226  00000+0 -55391-1 0  9995
2 67508  42.9990  73.2454 0001431 295.4863 218.1723 15.36633030  5685
STARLINK-36541          
1 67509U 26012S   26045.42889574  .00071950  00000+0  12184-2 0  9991
2 67509  42.9986  86.7186 0000543 353.0224   7.0629 15.50639519  4196
STARLINK-36549          
1 67510U 26012T   26047.58335648 -.01739584  00000+0 -57278-1 0  9999
2 67510  42.9993  73.2021 0001627 293.8735 233.8464 15.34021259  5620
STARLINK-36540          
1 67511U 26012U   26045.49165125  .00095249  00000+0  16087-2 0  9993
2 67511  43.0023  86.3251 0003376 283.9420  76.1065 15.50592337  4207
STARLINK-36538          
1 67512U 26012V   26047.58335648  .00067548  00000+0  24470-2 0  9991
2 67512  43.0001  73.8332 0002121 292.7071 339.2724 15.27509726  5684
STARLINK-36531          
1 67513U 26012W   26047.58335648 -.03026643  00000+0 -11705+0 0  9992
2 67513  42.9996  73.6980 0000467 282.3306  44.9679 15.29832365  5623
STARLINK-36530          
1 67514U 26012X   26047.58335648 -.02756473  00000+0 -10189+0 0  9998
2 67514  43.0007  73.6989 0001118 246.2930  81.1382 15.30870604  5628
STARLINK-36543          
1 67515U 26012Y   26047.58335648 -.02149939  00000+0 -76556-1 0  9994
2 67515  42.9995  73.7048 0001394 295.4526  30.2663 15.31728892  5622
STARLINK-36537          
1 67516U 26012Z   26047.58335648 -.02150530  00000+0 -76364-1 0  9991
2 67516  43.0008  73.5309 0000996 304.6224  90.6499 15.31821368  5622
